OBJECT_NAME,OBJECT_ID,EPOCH,MEAN_MOTION,ECCENTRICITY,INCLINATION,RA_OF_ASC_NODE,ARG_OF_PERICENTER,MEAN_ANOMALY,EPHEMERIS_TYPE,CLASSIFICATION_TYPE,NORAD_CAT_ID,ELEMENT_SET_NO,REV_AT_EPOCH,BSTAR,MEAN_MOTION_DOT,MEAN_MOTION_DDOT
LEMUR-1,2014-033AL,2026-06-14T03:03:38.790720,14.85236346,.0049745,97.7869,315.0007,88.4269,272.2644,0,U,40044,999,64501,.23470922E-3,.2003E-4,0
LEMUR-2-GREENBERG,2017-042N,2026-06-14T05:04:56.665344,15.31247013,.0008807,97.3809,345.8505,24.5489,335.6170,0,U,42837,999,48793,.53319307E-3,.1605E-3,0
LEMUR-2-ANDIS,2017-042P,2026-06-14T05:56:54.204576,15.34740898,.00084463,97.3668,346.0606,23.1042,337.0579,0,U,42838,999,48800,.62122154E-3,.20895E-3,0
LEMUR-2-MONSON,2017-042Q,2026-06-14T05:08:17.630016,15.27941251,.00064909,97.4069,345.8298,17.0814,343.0642,0,U,42839,999,48771,.49529349E-3,.13449E-3,0
LEMUR-2-FURIAUS,2017-042R,2026-06-14T00:10:28.827840,15.30158223,.00083243,97.3761,343.6098,78.7756,281.4420,0,U,42840,999,48772,.60449908E-3,.17604E-3,0
LEMUR-2-PETERG,2017-042S,2026-06-14T05:31:25.766976,15.33784891,.00034781,97.3978,350.2561,9.2107,350.9199,0,U,42841,999,48798,.61099227E-3,.19916E-3,0
LEMUR-2-DEMBITZ,2017-042T,2026-06-14T05:21:44.506656,15.30213255,.00070224,97.3816,346.8458,38.9176,321.2569,0,U,42842,999,48789,.52651856E-3,.1534E-3,0
LEMUR-2-ZACHARY,2017-042W,2026-06-14T02:11:46.075200,15.50020649,.00031233,97.3594,356.6634,45.1901,314.9604,0,U,42845,999,48872,.81199448E-3,.45647E-3,0
LEMUR-2-AMANDA-SVANTE,2021-034B,2026-06-14T03:52:44.483808,15.34138619,.00019274,97.5769,243.3672,217.8791,142.2316,0,U,48269,999,28059,.10438251E-2,.34523E-3,0
LEMUR-2-SPECIAL-K,2021-034F,2026-06-14T04:57:14.673312,15.63693304,.00038813,97.5656,251.8492,229.6783,130.4137,0,U,48273,999,28122,.15892235E-2,.150405E-2,0
LEMUR-2-EMBRIONOVIS,2023-084AQ,2026-06-14T03:25:44.342976,15.37482062,.00079115,97.6281,309.2254,332.2744,27.8077,0,U,56970,999,16721,.37833425E-3,.13844E-3,0
LEMUR-2-DEVERILL-M-T,2023-100F,2026-06-13T20:31:49.085472,15.39599682,.00066537,99.4475,202.6512,61.0244,299.1662,0,U,57391,999,16073,.67708866E-3,.26632E-3,0
LEMUR-2-BASS,2023-174D,2026-06-14T05:27:10.872288,15.43007025,.00074835,97.3853,249.8978,171.8007,188.3365,0,U,58259,999,14490,.40407813E-3,.17759E-3,0
LEMUR-2-JK0903EM1407,2023-174CJ,2026-06-14T05:47:57.544800,15.51545398,.00058168,97.3927,255.6288,128.0903,232.0874,0,U,58336,999,14527,.44755689E-3,.26461E-3,0
LEMUR-2-MJR092620,2023-174CN,2026-06-14T05:51:14.305248,15.44781393,.00070447,97.3983,255.2186,126.2487,233.9413,0,U,58340,999,14519,.40703998E-3,.18996E-3,0
LEMUR-2-NIMBUS2000,2024-022A,2026-06-14T06:49:57.762048,15.39914250,.00102473,97.4109,15.2503,124.8244,235.3967,0,U,58899,999,13182,.42374927E-3,.1682E-3,0
LEMUR-2-VALHALLA,2024-022B,2026-06-14T03:36:27.679968,15.39591610,.00107805,97.4107,15.1066,121.5542,238.6758,0,U,58900,999,13180,.42035086E-3,.16511E-3,0
LEMUR-2-OBA-NI-JESU,2024-022D,2026-06-13T06:27:58.466016,16.36778297,.0009182,97.3603,29.4721,248.5343,111.4976,0,U,58902,999,13270,.90464E-3,.7840474E-1,.25257E-5
LEMUR-2-CAEL,2024-022E,2026-06-14T02:20:46.972896,15.40885893,.00092701,97.4090,15.9838,106.5723,253.6542,0,U,58903,999,13186,.44052396E-3,.18056E-3,0
LEMUR-2-JOHNNYTRUONG,2024-043BA,2026-06-13T22:38:41.332416,15.60243743,.00047027,97.5365,316.4464,186.4415,173.6782,0,U,59146,999,12753,.47987091E-3,.3915E-3,0
LEMUR-2-TOMATOKECHUP,2024-149D,2026-06-14T04:13:05.397888,15.35976496,.00011473,97.3808,247.2145,181.7655,178.3585,0,U,60471,999,10170,.34860764E-3,.12135E-3,0
LEMUR-2-STELLA,2024-149BT,2026-06-14T04:04:01.991136,15.11753702,.00016434,97.6746,247.6108,94.5801,265.5617,0,U,60533,999,10004,.71531329E-3,.12144E-3,0
LEMUR-2-MARHISYAM,2024-149BW,2026-06-14T06:44:48.374016,15.11211494,.00034283,97.6890,248.1690,121.3305,238.8261,0,U,60536,999,10004,.6463117E-3,.10801E-3,0
LEMUR-2-AHMED-ASRAR,2024-149DN,2026-06-14T04:27:28.220256,15.12653994,.00020094,97.7012,250.1543,47.8289,312.3111,0,U,60576,999,10011,.74724024E-3,.13012E-3,0
LEMUR-2-LLOYD,2024-149DP,2026-06-14T04:35:30.009984,15.09186796,.00047002,97.6751,246.3187,147.8900,212.2616,0,U,60577,999,9994,.65451765E-3,.10346E-3,0
LEMUR-2-SQUIRRELCOMM,2024-149DQ,2026-06-14T04:49:58.288512,15.07122230,.00067348,97.6717,246.1219,70.6724,289.5231,0,U,60578,999,9995,.36867672E-3,.5479E-4,0
LEMUR-2-SIERRINI,2024-149DR,2026-06-14T04:07:04.892160,15.10892403,.00055983,97.6852,247.7498,174.4250,185.7043,0,U,60579,999,10000,.7269846E-3,.12055E-3,0
LEMUR-2-WILSON,2025-009CP,2026-06-14T05:12:52.070976,14.95152538,.00042794,97.7024,243.7337,64.1423,296.0239,0,U,62694,999,7691,.21661776E-3,.2321E-4,0
LEMUR-2-STAR-FOX,2025-009CR,2026-06-14T03:53:57.346656,15.02464841,.00035597,97.6960,246.7924,118.7505,241.4077,0,U,62696,999,7710,.61450811E-3,.8097E-4,0
